{
  "type": "FeatureCollection",
  "features": [
    {
      "type": "Feature",
      "properties": {
        "norad_id": 66941,
        "name": "STARLINK-36088",
        "group": "last-30-days",
        "lat": -23.4625437594409,
        "lon": -4.806377051015297,
        "alt_km": 338.4386705293691,
        "timestamp": "2025-12-19T22:41:51.098593+00:00",
        "meta_object_name": "STARLINK-36088",
        "meta_object_id": "2025-286S",
        "meta_epoch": "2025-12-19T18:00:00.998784",
        "meta_mean_motion": 15.79085022,
        "meta_eccentricity": 6.53e-05,
        "meta_inclination": 53.1549,
        "meta_ra_of_asc_node": 15.166,
        "meta_arg_of_pericenter": 81.5965,
        "meta_mean_anomaly": 215.6384,
        "meta_ephemeris_type": 0,
        "meta_classification_type": "U",
        "meta_norad_cat_id": 66941,
        "meta_element_set_no": 999,
        "meta_rev_at_epoch": 311,
        "meta_bstar": -0.0093952,
        "meta_mean_motion_dot": -0.01505199,
        "meta_mean_motion_ddot": 0,
        "tle_line1": "1 66941U 25286S   25353.75001156 -.01505199  00000+0 -93952-2 0  9993",
        "tle_line2": "2 66941  53.1549  15.1660 0000653  81.5965 215.6384 15.79085022  3115"
      },
      "geometry": {
        "type": "Point",
        "coordinates": [
          -4.806377051015297,
          -23.4625437594409
        ]
      }
    },
    {
      "type": "Feature",
      "properties": {
        "norad_id": 66942,
        "name": "STARLINK-36100",
        "group": "last-30-days",
        "lat": -18.660452981201203,
        "lon": -0.49463085612222746,
        "alt_km": 338.1836512319469,
        "timestamp": "2025-12-19T22:41:51.098608+00:00",
        "meta_object_name": "STARLINK-36100",
        "meta_object_id": "2025-286T",
        "meta_epoch": "2025-12-19T18:00:00.998784",
        "meta_mean_motion": 15.79015684,
        "meta_eccentricity": 7.15e-05,
        "meta_inclination": 53.1549,
        "meta_ra_of_asc_node": 15.1529,
        "meta_arg_of_pericenter": 75.4348,
        "meta_mean_anomaly": 228.13,
        "meta_ephemeris_type": 0,
        "meta_classification_type": "U",
        "meta_norad_cat_id": 66942,
        "meta_element_set_no": 999,
        "meta_rev_at_epoch": 304,
        "meta_bstar": -0.0095724,
        "meta_mean_motion_dot": -0.0152588,
        "meta_mean_motion_ddot": 0,
        "tle_line1": "1 66942U 25286T   25353.75001156 -.01525880  00000+0 -95724-2 0  9992",
        "tle_line2": "2 66942  53.1549  15.1529 0000715  75.4348 228.1300 15.79015684  3042"
      },
      "geometry": {
        "type": "Point",
        "coordinates": [
          -0.49463085612222746,
          -18.660452981201203
        ]
      }
    },
    {
      "type": "Feature",
      "properties": {
        "norad_id": 66943,
        "name": "STARLINK-36109",
        "group": "last-30-days",
        "lat": -16.904246394130883,
        "lon": 0.9970462155454235,
        "alt_km": 338.24140914566124,
        "timestamp": "2025-12-19T22:41:51.098619+00:00",
        "meta_object_name": "STARLINK-36109",
        "meta_object_id": "2025-286U",
        "meta_epoch": "2025-12-19T18:00:00.998784",
        "meta_mean_motion": 15.78961141,
        "meta_eccentricity": 6.37e-05,
        "meta_inclination": 53.1548,
        "meta_ra_of_asc_node": 15.148,
        "meta_arg_of_pericenter": 86.0128,
        "meta_mean_anomaly": 219.8539,
        "meta_ephemeris_type": 0,
        "meta_classification_type": "U",
        "meta_norad_cat_id": 66943,
        "meta_element_set_no": 999,
        "meta_rev_at_epoch": 304,
        "meta_bstar": -0.009671,
        "meta_mean_motion_dot": -0.01536231,
        "meta_mean_motion_ddot": 0,
        "tle_line1": "1 66943U 25286U   25353.75001156 -.01536231  00000+0 -96710-2 0  9991",
        "tle_line2": "2 66943  53.1548  15.1480 0000637  86.0128 219.8539 15.78961141  3043"
      },
      "geometry": {
        "type": "Point",
        "coordinates": [
          0.9970462155454235,
          -16.904246394130883
        ]
      }
    },
    {
      "type": "Feature",
      "properties": {
        "norad_id": 66944,
        "name": "STARLINK-36112",
        "group": "last-30-days",
        "lat": -15.302876225326928,
        "lon": 2.325497662399848,
        "alt_km": 338.1670064222526,
        "timestamp": "2025-12-19T22:41:51.098629+00:00",
        "meta_object_name": "STARLINK-36112",
        "meta_object_id": "2025-286V",
        "meta_epoch": "2025-12-19T18:00:00.998784",
        "meta_mean_motion": 15.78941113,
        "meta_eccentricity": 6.64e-05,
        "meta_inclination": 53.1549,
        "meta_ra_of_asc_node": 15.1437,
        "meta_arg_of_pericenter": 89.5541,
        "meta_mean_anomaly": 218.3789,
        "meta_ephemeris_type": 0,
        "meta_classification_type": "U",
        "meta_norad_cat_id": 66944,
        "meta_element_set_no": 999,
        "meta_rev_at_epoch": 311,
        "meta_bstar": -0.0097052,
        "meta_mean_motion_dot": -0.01539758,
        "meta_mean_motion_ddot": 0,
        "tle_line1": "1 66944U 25286V   25353.75001156 -.01539758  00000+0 -97052-2 0  9999",
        "tle_line2": "2 66944  53.1549  15.1437 0000664  89.5541 218.3789 15.78941113  3110"
      },
      "geometry": {
        "type": "Point",
        "coordinates": [
          2.325497662399848,
          -15.302876225326928
        ]
      }
    },
    {
      "type": "Feature",
      "properties": {
        "norad_id": 66945,
        "name": "STARLINK-36110",
        "group": "last-30-days",
        "lat": -13.554566081706637,
        "lon": 3.7451035403291413,
        "alt_km": 338.0860984539995,
        "timestamp": "2025-12-19T22:41:51.098642+00:00",
        "meta_object_name": "STARLINK-36110",
        "meta_object_id": "2025-286W",
        "meta_epoch": "2025-12-19T18:00:00.998784",
        "meta_mean_motion": 15.78890745,
        "meta_eccentricity": 6.53e-05,
        "meta_inclination": 53.1546,
        "meta_ra_of_asc_node": 15.1386,
        "meta_arg_of_pericenter": 82.7843,
        "meta_mean_anomaly": 227.4144,
        "meta_ephemeris_type": 0,
        "meta_classification_type": "U",
        "meta_norad_cat_id": 66945,
        "meta_element_set_no": 999,
        "meta_rev_at_epoch": 311,
        "meta_bstar": -0.0098025,
        "meta_mean_motion_dot": -0.0155012,
        "meta_mean_motion_ddot": 0,
        "tle_line1": "1 66945U 25286W   25353.75001156 -.01550120  00000+0 -98025-2 0  9997",
        "tle_line2": "2 66945  53.1546  15.1386 0000653  82.7843 227.4144 15.78890745  3119"
      },
      "geometry": {
        "type": "Point",
        "coordinates": [
          3.7451035403291413,
          -13.554566081706637
        ]
      }
    },
    {
      "type": "Feature",
      "properties": {
        "norad_id": 66946,
        "name": "STARLINK-36115",
        "group": "last-30-days",
        "lat": -11.899865480154848,
        "lon": 5.064237141362065,
        "alt_km": 337.9733846114241,
        "timestamp": "2025-12-19T22:41:51.098653+00:00",
        "meta_object_name": "STARLINK-36115",
        "meta_object_id": "2025-286X",
        "meta_epoch": "2025-12-19T18:00:00.998784",
        "meta_mean_motion": 15.78862871,
        "meta_eccentricity": 7.17e-05,
        "meta_inclination": 53.1546,
        "meta_ra_of_asc_node": 15.1343,
        "meta_arg_of_pericenter": 79.9314,
        "meta_mean_anomaly": 232.3886,
        "meta_ephemeris_type": 0,
        "meta_classification_type": "U",
        "meta_norad_cat_id": 66946,
        "meta_element_set_no": 999,
        "meta_rev_at_epoch": 311,
        "meta_bstar": -0.0098702,
        "meta_mean_motion_dot": -0.01557776,
        "meta_mean_motion_ddot": 0,
        "tle_line1": "1 66946U 25286X   25353.75001156 -.01557776  00000+0 -98702-2 0  9994",
        "tle_line2": "2 66946  53.1546  15.1343 0000717  79.9314 232.3886 15.78862871  3112"
      },
      "geometry": {
        "type": "Point",
        "coordinates": [
          5.064237141362065,
          -11.899865480154848
        ]
      }
    },
    {
      "type": "Feature",
      "properties": {
        "norad_id": 66947,
        "name": "STARLINK-36089",
        "group": "last-30-days",
        "lat": -8.48928582644306,
        "lon": 7.720923345666178,
        "alt_km": 337.77821714899983,
        "timestamp": "2025-12-19T22:41:51.098663+00:00",
        "meta_object_name": "STARLINK-36089",
        "meta_object_id": "2025-286Y",
        "meta_epoch": "2025-12-19T18:00:00.998784",
        "meta_mean_motion": 15.78783587,
        "meta_eccentricity": 9.54e-05,
        "meta_inclination": 53.1547,
        "meta_ra_of_asc_node": 15.1251,
        "meta_arg_of_pericenter": 76.5081,
        "meta_mean_anomaly": 240.1773,
        "meta_ephemeris_type": 0,
        "meta_classification_type": "U",
        "meta_norad_cat_id": 66947,
        "meta_element_set_no": 999,
        "meta_rev_at_epoch": 311,
        "meta_bstar": -0.010018,
        "meta_mean_motion_dot": -0.01573259,
        "meta_mean_motion_ddot": 0,
        "tle_line1": "1 66947U 25286Y   25353.75001156 -.01573259  00000+0 -10018-1 0  9992",
        "tle_line2": "2 66947  53.1547  15.1251 0000954  76.5081 240.1773 15.78783587  3117"
      },
      "geometry": {
        "type": "Point",
        "coordinates": [
          7.720923345666178,
          -8.48928582644306
        ]
      }
    }
  ]
}